OBJECT_NAME,OBJECT_ID,EPOCH,MEAN_MOTION,ECCENTRICITY,INCLINATION,RA_OF_ASC_NODE,ARG_OF_PERICENTER,MEAN_ANOMALY,EPHEMERIS_TYPE,CLASSIFICATION_TYPE,NORAD_CAT_ID,ELEMENT_SET_NO,REV_AT_EPOCH,BSTAR,MEAN_MOTION_DOT,MEAN_MOTION_DDOT
STARLINK-5823,2023-028AX,2026-06-08T20:00:03.000384,14.98319441,.0003053,70.0011,334.7294,272.2054,196.8445,0,U,55786,999,565,.18562E-2,.22119E-3,0
STARLINK-5811,2023-028AY,2026-06-08T18:06:50.382720,14.98329405,.0002832,69.9993,334.9779,269.6251,90.4584,0,U,55787,999,18066,.39025E-5,-.46E-6,0
STARLINK-5804,2023-028AZ,2026-06-08T19:36:59.586048,14.98330276,.0002539,69.9990,334.7949,264.7223,95.3646,0,U,55788,999,18067,.54E-4,.551E-5,0
STARLINK-5815,2023-028BA,2026-06-08T19:00:53.633088,14.98332163,.0002831,69.9992,334.7056,272.6837,87.3997,0,U,55789,999,18067,.83723E-5,.7E-7,0
STARLINK-5813,2023-028BB,2026-06-08T19:07:08.608224,14.98331496,.0002934,69.9996,334.7226,267.6698,92.4125,0,U,55790,999,18067,-.14909E-5,-.111E-5,0
STARLINK-5807,2023-028BC,2026-06-08T19:24:56.357568,14.98335526,.0003066,69.9997,334.7657,267.4161,92.6647,0,U,55791,999,18067,-.61094E-4,-.822E-5,0
STARLINK-5856,2023-037A,2026-06-08T19:38:38.392224,14.98316787,.0002748,70.0007,74.8432,270.0432,90.0412,0,U,55914,999,17782,.79059E-4,.85E-5,0
STARLINK-5859,2023-037B,2026-06-08T19:14:35.330784,14.98332982,.0003016,70.0001,74.7825,269.9258,90.1555,0,U,55915,999,17781,.48488E-4,.486E-5,0
STARLINK-5796,2023-037C,2026-06-08T19:32:37.474368,14.98366322,.0003453,70.0013,74.8275,272.4086,87.6677,0,U,55916,999,17713,-.55025E-3,-.6659E-4,0
STARLINK-5867,2023-037E,2026-06-08T19:26:36.644640,14.98331171,.0003191,70.0006,74.8135,265.2488,94.8306,0,U,55918,999,17713,.26381E-4,.222E-5,0
STARLINK-5871,2023-037F,2026-06-08T19:14:49.555680,14.98326968,.000254,70.0039,74.7840,259.9164,100.1709,0,U,55919,999,17713,-.29076E-4,-.44E-5,0
STARLINK-5862,2023-037G,2026-06-08T19:20:18.360384,14.98331398,.0003093,70.0002,54.9183,268.9431,91.1374,0,U,55920,999,17762,.47163E-4,.47E-5,0
STARLINK-5861,2023-037H,2026-06-08T18:50:32.921664,14.98328711,.0002987,70.0004,74.7253,269.9334,90.1483,0,U,55921,999,17713,.63794E-4,.668E-5,0
STARLINK-5863,2023-037J,2026-06-08T18:56:31.487712,14.98353459,.000388,69.9975,74.7347,275.0704,85.0013,0,U,55922,999,17713,.14263E-3,.161E-4,0
STARLINK-5854,2023-037K,2026-06-08T19:02:35.738016,14.98312271,.0003315,69.9994,74.7527,272.3603,87.7176,0,U,55923,999,17713,.29283E-3,.3401E-4,0
STARLINK-5849,2023-037L,2026-06-08T19:14:16.147392,14.98332206,.0002919,70.0006,54.9028,271.4055,88.6770,0,U,55924,999,17762,-.88821E-5,-.199E-5,0
STARLINK-5922,2023-037M,2026-06-08T18:44:32.673408,14.98340673,.0002859,70.0006,74.7093,270.1777,89.9054,0,U,55925,999,17713,-.3963E-4,-.566E-5,0
STARLINK-5921,2023-037N,2026-06-08T19:02:14.716032,14.98331483,.0002967,70.0004,54.8762,270.4545,89.6274,0,U,55926,999,17762,.2162E-4,.165E-5,0
STARLINK-5919,2023-037P,2026-06-08T12:08:14.492256,14.98324058,.0003126,70.0002,75.3558,267.1767,92.9034,0,U,55927,999,17708,-.2387E-5,-.121E-5,0
STARLINK-5930,2023-037Q,2026-06-08T04:01:17.851008,14.98330851,.0002859,70.0004,76.1811,269.2204,90.8628,0,U,55928,999,17704,-.93025E-5,-.204E-5,0
STARLINK-5896,2023-037S,2026-06-08T18:20:10.379328,14.98338803,.0002847,70.0017,54.7774,270.4512,89.6321,0,U,55930,999,17762,.62277E-3,.7347E-4,0
STARLINK-5897,2023-037T,2026-06-08T11:55:57.465696,14.98329352,.0003271,70.0004,75.3255,269.6821,90.3964,0,U,55931,999,17709,.30392E-4,.27E-5,0
STARLINK-5848,2023-037U,2026-06-08T18:55:52.622400,14.98328556,.0002852,70.0000,34.5754,268.5683,91.5149,0,U,55932,999,17812,.1374E-4,.71E-6,0
STARLINK-5852,2023-037V,2026-06-08T18:56:14.254368,14.98330937,.0002924,70.0004,54.8631,269.5982,90.4841,0,U,55933,999,17762,.50729E-4,.512E-5,0
STARLINK-5927,2023-037W,2026-06-08T18:20:24.667296,14.98328360,.0002869,70.0004,54.7739,268.4431,91.6399,0,U,55934,999,17762,.50757E-4,.513E-5,0
STARLINK-5920,2023-037X,2026-06-08T18:50:12.989184,14.98338225,.0002583,70.0004,54.8458,270.9727,89.1136,0,U,55935,999,17762,.12433E-3,.1391E-4,0
STARLINK-5882,2023-037Y,2026-06-08T19:01:53.135040,14.98334260,.0002965,69.9996,34.5908,270.7174,89.3645,0,U,55936,999,17812,-.18351E-5,-.115E-5,0
STARLINK-5913,2023-037Z,2026-06-08T18:44:13.002720,14.98317608,.0003285,69.9999,54.8317,266.8803,93.1980,0,U,55937,999,17762,.88081E-4,.958E-5,0
STARLINK-5909,2023-037AA,2026-06-08T18:38:12.333696,14.98327733,.000303,69.9998,54.8174,268.1982,91.8830,0,U,55938,999,17762,.32106E-4,.29E-5,0
STARLINK-5918,2023-037AB,2026-06-08T18:26:10.645728,14.98347165,.0002768,69.9998,54.7882,266.4734,93.6108,0,U,55939,999,17762,-.26693E-3,-.3278E-4,0
STARLINK-5864,2023-037AC,2026-06-08T18:32:11.732928,14.98328603,.0002794,69.9997,54.8033,269.8818,90.2021,0,U,55940,999,17762,.23392E-4,.186E-5,0
STARLINK-5914,2023-037AD,2026-06-08T19:08:15.569952,14.98332086,.0002584,70.0002,54.8897,269.5314,90.5549,0,U,55941,999,17762,.42144E-4,.41E-5,0
STARLINK-5917,2023-037AE,2026-06-08T19:32:15.614304,14.98332930,.0002974,70.0005,54.5455,270.7604,89.3214,0,U,55942,999,17763,.34724E-4,.321E-5,0
STARLINK-5932,2023-037AF,2026-06-08T19:44:16.852128,14.98333885,.0003024,69.9997,54.5655,270.6648,89.4165,0,U,55943,999,17763,-.33461E-5,-.133E-5,0
STARLINK-5926,2023-037AG,2026-06-08T19:38:16.200384,14.98331884,.0002916,70.0006,54.5589,273.7767,86.3058,0,U,55944,999,17763,.34593E-4,.32E-5,0
STARLINK-5925,2023-037AH,2026-06-08T19:50:31.983648,14.98329812,.0002927,70.0002,54.5910,268.5534,91.5289,0,U,55945,999,17763,.18388E-4,.126E-5,0
STARLINK-5857,2023-037AJ,2026-06-08T19:50:17.566080,14.98329823,.0002891,70.0005,54.5916,262.9258,97.1573,0,U,55946,999,17762,.3445E-4,.318E-5,0
STARLINK-5900,2023-037AL,2026-06-08T18:31:53.781600,14.98314639,.0003408,69.9994,34.9178,279.0463,81.0310,0,U,55948,999,17811,.25213E-3,.2915E-4,0
STARLINK-5899,2023-037AM,2026-06-08T18:43:54.693696,14.98344695,.0002398,70.0000,34.9501,269.2417,90.8467,0,U,55949,999,17811,-.28022E-3,-.3436E-4,0
STARLINK-5911,2023-037AN,2026-06-08T18:25:51.446784,14.98332341,.0002971,70.0002,34.9061,270.2560,89.8258,0,U,55950,999,17811,.33979E-4,.312E-5,0
STARLINK-5908,2023-037AP,2026-06-08T19:26:15.008352,14.98331780,.0003006,70.0008,54.5304,270.7537,89.3277,0,U,55951,999,17763,.50951E-4,.515E-5,0
STARLINK-5893,2023-037AQ,2026-06-08T18:32:06.504864,14.98325258,.0002984,70.0003,34.9217,270.6277,89.4540,0,U,55952,999,17811,.63077E-4,.66E-5,0
STARLINK-5892,2023-037AS,2026-06-08T19:25:55.277184,14.98330413,.0002951,69.9997,34.6520,267.5675,92.5146,0,U,55954,999,17812,-.18066E-3,-.2248E-4,0
STARLINK-5878,2023-037AT,2026-06-08T19:49:59.893824,14.98324739,.0002844,70.0005,34.7088,270.3277,89.7556,0,U,55955,999,17812,-.77368E-4,-.1016E-4,0
STARLINK-5883,2023-037AU,2026-06-08T19:13:54.449760,14.98331761,.0002957,69.9997,34.6213,270.4366,89.6454,0,U,55956,999,17812,.67565E-5,-.12E-6,0
STARLINK-5884,2023-037AV,2026-06-08T18:19:50.820096,14.98330718,.0003016,70.0003,34.8911,271.7806,88.3008,0,U,55957,999,17811,.3975E-4,.381E-5,0
STARLINK-5928,2023-037AW,2026-06-08T19:43:57.584928,14.98332341,.0003063,69.9998,34.6951,269.5472,90.5336,0,U,55958,999,17812,.24559E-4,.2E-5,0
STARLINK-5929,2023-037AX,2026-06-08T19:37:57.046368,14.98332184,.0002908,70.0000,34.6802,270.2082,89.8744,0,U,55959,999,17812,.11605E-5,-.79E-6,0
STARLINK-5938,2023-037AY,2026-06-08T18:20:05.394048,14.98313596,.0003084,70.0003,34.8738,272.3992,87.6814,0,U,55960,999,17811,.64135E-4,.672E-5,0
STARLINK-5933,2023-037AZ,2026-06-08T19:19:55.197408,14.98332785,.0002906,69.9996,34.6362,271.7981,88.2845,0,U,55961,999,17812,.31854E-4,.287E-5,0
STARLINK-5906,2023-037BA,2026-06-08T18:37:53.419872,14.98323026,.0002987,70.0001,34.9295,270.0994,89.9823,0,U,55962,999,17811,-.70821E-4,-.938E-5,0
STARLINK-5924,2023-037BB,2026-06-08T19:31:56.483616,14.98333584,.0002822,69.9998,34.6661,271.6643,88.4193,0,U,55963,999,17812,.18362E-4,.126E-5,0
STARLINK-5895,2023-037BC,2026-06-08T19:44:38.693184,15.10272405,.0004685,69.9966,27.0353,201.4470,158.6499,0,U,55964,999,17831,.11221E-2,.18355E-3,0
STARLINK-5894,2023-037BD,2026-06-08T19:07:53.962176,14.98329425,.0002994,69.9997,34.6070,269.0425,91.0391,0,U,55965,999,17812,.78727E-5,.1E-7,0
STARLINK-5905,2023-042A,2026-06-07T13:53:46.815648,15.27583295,.00017312,43.0031,272.2236,275.3424,84.7230,0,U,55986,999,17743,.51914708E-4,.1167E-4,0
STARLINK-5915,2023-042B,2026-06-08T14:30:41.169888,15.27576294,.0001159,43.0004,266.1784,269.8396,90.2322,0,U,55987,999,17677,.22287E-4,.351E-5,0
STARLINK-5916,2023-042C,2026-06-08T14:09:50.861664,15.27571275,.0001711,43.0030,270.3400,271.7573,88.3083,0,U,55988,999,17672,.20301E-6,-.257E-5,0
STARLINK-5947,2023-042D,2026-06-08T14:25:06.399264,15.27575908,.0000945,43.0052,266.1513,273.3145,86.7599,0,U,55989,999,17677,.13587E-3,.3478E-4,0
STARLINK-5946,2023-042E,2026-06-08T14:10:20.646336,15.27573562,.0001123,43.0028,266.0768,266.2122,93.8602,0,U,55990,999,17677,-.20108E-4,-.815E-5,0
STARLINK-5948,2023-042F,2026-06-08T00:20:16.473120,15.27583976,.00013135,43.0051,266.0764,292.6534,67.4179,0,U,55991,999,17672,-.22813412E-3,-.6535E-4,0
STARLINK-5969,2023-042H,2026-06-08T14:19:35.353344,15.27575267,.0001213,43.0000,266.1204,273.1068,86.9645,0,U,55993,999,17677,.87869E-5,-.2E-6,0
STARLINK-5956,2023-042J,2026-06-07T00:56:28.728096,15.27579971,.0001557,43.0035,275.0686,276.1927,83.8748,0,U,55994,999,17653,.27071E-4,.483E-5,0
STARLINK-5903,2023-042L,2026-06-08T14:02:56.851008,15.27582441,.0001576,42.9994,266.0315,270.9970,89.0701,0,U,55996,999,17676,.84587E-4,.2066E-4,0
STARLINK-5902,2023-042N,2026-06-08T14:08:28.831776,15.27579191,.0001059,43.0022,266.0583,257.0525,103.0208,0,U,55998,999,17677,-.58734E-5,-.424E-5,0
STARLINK-5901,2023-042P,2026-06-07T01:07:34.758048,15.27579025,.0001641,43.0038,275.1208,267.0396,93.0268,0,U,55999,999,17653,.20344E-4,.298E-5,0
STARLINK-5910,2023-042Q,2026-06-08T14:23:15.750240,15.27589130,.0001024,43.0036,266.1271,273.0741,86.9994,0,U,56000,999,17677,.54357E-4,.1234E-4,0
